[{"OBJECT_NAME":"RADARSAT-2","OBJECT_ID":"2007-061A","EPOCH":"2026-03-09T23:01:05.689632","MEAN_MOTION":14.2996427,"ECCENTRICITY":0.00012561,"INCLINATION":98.582,"RA_OF_ASC_NODE":77.296,"ARG_OF_PERICENTER":84.478,"MEAN_ANOMALY":275.6546,"EPHEMERIS_TYPE":0,"CLASSIFICATION_TYPE":"U","NORAD_CAT_ID":32382,"ELEMENT_SET_NO":999,"REV_AT_EPOCH":95177,"BSTAR":-6.0240739e-5,"MEAN_MOTION_DOT":-1.99e-6,"MEAN_MOTION_DDOT":0},{"OBJECT_NAME":"DMSP 5D-2 F11 DEB","OBJECT_ID":"1991-082AE","EPOCH":"2026-03-09T14:17:31.996608","MEAN_MOTION":14.20237127,"ECCENTRICITY":0.011792,"INCLINATION":98.868,"RA_OF_ASC_NODE":87.6261,"ARG_OF_PERICENTER":215.8119,"MEAN_ANOMALY":271.8699,"EPHEMERIS_TYPE":0,"CLASSIFICATION_TYPE":"U","NORAD_CAT_ID":28317,"ELEMENT_SET_NO":999,"REV_AT_EPOCH":12907,"BSTAR":0.00048688,"MEAN_MOTION_DOT":1.07e-5,"MEAN_MOTION_DDOT":0}]
